{
 "generated_at": "2026-07-09T08:28:01Z",
 "sources": [
  {
   "name": "CelesTrak",
   "url": "https://celestrak.org/NORAD/elements/",
   "license": "frei verfügbar; Attribution. Ursprünglich USSPACECOM/Space-Track."
  },
  {
   "name": "GCAT (J. McDowell, planet4589.org)",
   "url": "https://planet4589.org/space/gcat/",
   "license": "CC-BY 4.0"
  }
 ],
 "satellites": [
  {
   "norad": 47932,
   "name": "CAS500-1",
   "intl": "2021-022A",
   "group": "resource",
   "gcat": {
    "class": "C",
    "category": "IMG",
    "owner": "KARI",
    "state": "KR"
   },
   "omm": {
    "OBJECT_NAME": "CAS500-1",
    "OBJECT_ID": "2021-022A",
    "EPOCH": "2026-07-08T23:34:56.113824",
    "MEAN_MOTION": 15.20136811,
    "ECCENTRICITY": 0.00045089,
    "INCLINATION": 97.3874,
    "RA_OF_ASC_NODE": 84.7921,
    "ARG_OF_PERICENTER": 190.1129,
    "MEAN_ANOMALY": 170.0016,
    "EPHEMERIS_TYPE": 0,
    "CLASSIFICATION_TYPE": "U",
    "NORAD_CAT_ID": 47932,
    "ELEMENT_SET_NO": 999,
    "REV_AT_EPOCH": 29407,
    "BSTAR": 0.00018822039,
    "MEAN_MOTION_DOT": 0.00004003,
    "MEAN_MOTION_DDOT": 0
   }
  },
  {
   "norad": 69013,
   "name": "CAS500-2",
   "intl": "2026-100AK",
   "group": "resource",
   "gcat": {
    "class": "C",
    "category": "TECH",
    "owner": "KAIST",
    "state": "KR"
   },
   "omm": {
    "OBJECT_NAME": "CAS500-2",
    "OBJECT_ID": "2026-100AK",
    "EPOCH": "2026-07-08T16:03:17.946144",
    "MEAN_MOTION": 15.20852251,
    "ECCENTRICITY": 0.00082432,
    "INCLINATION": 97.3876,
    "RA_OF_ASC_NODE": 87.1194,
    "ARG_OF_PERICENTER": 319.2851,
    "MEAN_ANOMALY": 40.7768,
    "EPHEMERIS_TYPE": 0,
    "CLASSIFICATION_TYPE": "U",
    "NORAD_CAT_ID": 69013,
    "ELEMENT_SET_NO": 999,
    "REV_AT_EPOCH": 1007,
    "BSTAR": 0.00020476097,
    "MEAN_MOTION_DOT": 0.00004456,
    "MEAN_MOTION_DDOT": 0
   }
  },
  {
   "norad": 66655,
   "name": "CAS500-3",
   "intl": "2025-274F",
   "group": "resource",
   "gcat": {
    "class": "B",
    "category": "IMG",
    "owner": "KAIST",
    "state": "KR"
   },
   "omm": {
    "OBJECT_NAME": "CAS500-3",
    "OBJECT_ID": "2025-274F",
    "EPOCH": "2026-07-08T19:06:22.060224",
    "MEAN_MOTION": 14.88374289,
    "ECCENTRICITY": 0.00066658,
    "INCLINATION": 97.744,
    "RA_OF_ASC_NODE": 117.3557,
    "ARG_OF_PERICENTER": 55.1765,
    "MEAN_ANOMALY": 305.0078,
    "EPHEMERIS_TYPE": 0,
    "CLASSIFICATION_TYPE": "U",
    "NORAD_CAT_ID": 66655,
    "ELEMENT_SET_NO": 999,
    "REV_AT_EPOCH": 3336,
    "BSTAR": 0.00010657486,
    "MEAN_MOTION_DOT": 0.00000933,
    "MEAN_MOTION_DDOT": 0
   }
  },
  {
   "norad": 40336,
   "name": "CBERS 4",
   "intl": "2014-079A",
   "group": "resource",
   "gcat": {
    "class": "C",
    "category": "IMG",
    "owner": "ZZWYZ/INPE",
    "state": "CN"
   },
   "omm": {
    "OBJECT_NAME": "CBERS 4",
    "OBJECT_ID": "2014-079A",
    "EPOCH": "2026-07-08T23:50:19.353984",
    "MEAN_MOTION": 14.35514373,
    "ECCENTRICITY": 0.00010459,
    "INCLINATION": 98.3519,
    "RA_OF_ASC_NODE": 246.1397,
    "ARG_OF_PERICENTER": 50.216,
    "MEAN_ANOMALY": 309.9118,
    "EPHEMERIS_TYPE": 0,
    "CLASSIFICATION_TYPE": "U",
    "NORAD_CAT_ID": 40336,
    "ELEMENT_SET_NO": 999,
    "REV_AT_EPOCH": 60708,
    "BSTAR": -0.000036793629,
    "MEAN_MOTION_DOT": -0.00000148,
    "MEAN_MOTION_DDOT": 0
   }
  },
  {
   "norad": 64903,
   "name": "CO3D 1",
   "intl": "2025-156E",
   "group": "resource",
   "gcat": {
    "class": "C",
    "category": "SCI",
    "owner": "CNES",
    "state": "F"
   },
   "omm": {
    "OBJECT_NAME": "CO3D 1",
    "OBJECT_ID": "2025-156E",
    "EPOCH": "2026-07-08T22:36:22.965408",
    "MEAN_MOTION": 15.201921,
    "ECCENTRICITY": 0.00012711,
    "INCLINATION": 97.4333,
    "RA_OF_ASC_NODE": 268.2211,
    "ARG_OF_PERICENTER": 97.2632,
    "MEAN_ANOMALY": 262.8748,
    "EPHEMERIS_TYPE": 0,
    "CLASSIFICATION_TYPE": "U",
    "NORAD_CAT_ID": 64903,
    "ELEMENT_SET_NO": 999,
    "REV_AT_EPOCH": 5283,
    "BSTAR": 0.00013705821,
    "MEAN_MOTION_DOT": 0.000029,
    "MEAN_MOTION_DDOT": 0
   }
  },
  {
   "norad": 64902,
   "name": "CO3D 2",
   "intl": "2025-156D",
   "group": "resource",
   "gcat": {
    "class": "C",
    "category": "SCI",
    "owner": "CNES",
    "state": "F"
   },
   "omm": {
    "OBJECT_NAME": "CO3D 2",
    "OBJECT_ID": "2025-156D",
    "EPOCH": "2026-07-08T22:36:09.626112",
    "MEAN_MOTION": 15.2021266,
    "ECCENTRICITY": 0.00013468,
    "INCLINATION": 97.4332,
    "RA_OF_ASC_NODE": 268.2209,
    "ARG_OF_PERICENTER": 89.9661,
    "MEAN_ANOMALY": 270.1728,
    "EPHEMERIS_TYPE": 0,
    "CLASSIFICATION_TYPE": "U",
    "NORAD_CAT_ID": 64902,
    "ELEMENT_SET_NO": 999,
    "REV_AT_EPOCH": 5283,
    "BSTAR": 0.00012550689,
    "MEAN_MOTION_DOT": 0.00002651,
    "MEAN_MOTION_DDOT": 0
   }
  },
  {
   "norad": 64900,
   "name": "CO3D 3",
   "intl": "2025-156B",
   "group": "resource",
   "gcat": {
    "class": "C",
    "category": "SCI",
    "owner": "CNES",
    "state": "F"
   },
   "omm": {
    "OBJECT_NAME": "CO3D 3",
    "OBJECT_ID": "2025-156B",
    "EPOCH": "2026-07-08T21:49:11.431776",
    "MEAN_MOTION": 15.20203455,
    "ECCENTRICITY": 0.0001845,
    "INCLINATION": 97.4333,
    "RA_OF_ASC_NODE": 268.2898,
    "ARG_OF_PERICENTER": 100.3006,
    "MEAN_ANOMALY": 259.8437,
    "EPHEMERIS_TYPE": 0,
    "CLASSIFICATION_TYPE": "U",
    "NORAD_CAT_ID": 64900,
    "ELEMENT_SET_NO": 999,
    "REV_AT_EPOCH": 5283,
    "BSTAR": 0.00013375737,
    "MEAN_MOTION_DOT": 0.00002829,
    "MEAN_MOTION_DDOT": 0
   }
  },
  {
   "norad": 64901,
   "name": "CO3D 4",
   "intl": "2025-156C",
   "group": "resource",
   "gcat": {
    "class": "C",
    "category": "SCI",
    "owner": "CNES",
    "state": "F"
   },
   "omm": {
    "OBJECT_NAME": "CO3D 4",
    "OBJECT_ID": "2025-156C",
    "EPOCH": "2026-07-08T21:49:24.350304",
    "MEAN_MOTION": 15.20195174,
    "ECCENTRICITY": 0.00011245,
    "INCLINATION": 97.4334,
    "RA_OF_ASC_NODE": 268.2897,
    "ARG_OF_PERICENTER": 163.8871,
    "MEAN_ANOMALY": 196.24,
    "EPHEMERIS_TYPE": 0,
    "CLASSIFICATION_TYPE": "U",
    "NORAD_CAT_ID": 64901,
    "ELEMENT_SET_NO": 999,
    "REV_AT_EPOCH": 5283,
    "BSTAR": 0.00005595998,
    "MEAN_MOTION_DOT": 0.00001144,
    "MEAN_MOTION_DDOT": 0
   }
  },
  {
   "norad": 36744,
   "name": "COMS 1",
   "intl": "2010-032A",
   "group": "weather",
   "gcat": {
    "class": null,
    "category": null,
    "owner": null,
    "state": null
   },
   "omm": {
    "OBJECT_NAME": "COMS 1",
    "OBJECT_ID": "2010-032A",
    "EPOCH": "2026-07-08T08:30:55.567584",
    "MEAN_MOTION": 0.99169315,
    "ECCENTRICITY": 0.00113597,
    "INCLINATION": 4.8563,
    "RA_OF_ASC_NODE": 75.1008,
    "ARG_OF_PERICENTER": 14.729,
    "MEAN_ANOMALY": 313.4314,
    "EPHEMERIS_TYPE": 0,
    "CLASSIFICATION_TYPE": "U",
    "NORAD_CAT_ID": 36744,
    "ELEMENT_SET_NO": 999,
    "REV_AT_EPOCH": 5129,
    "BSTAR": 0,
    "MEAN_MOTION_DOT": -0.00000198,
    "MEAN_MOTION_DDOT": 0
   }
  },
  {
   "norad": 31598,
   "name": "COSMO-SKYMED 1",
   "intl": "2007-023A",
   "group": "resource",
   "gcat": {
    "class": "D",
    "category": "IMG-R",
    "owner": "ASI",
    "state": "I"
   },
   "omm": {
    "OBJECT_NAME": "COSMO-SKYMED 1",
    "OBJECT_ID": "2007-023A",
    "EPOCH": "2026-07-08T23:45:34.240896",
    "MEAN_MOTION": 14.97200908,
    "ECCENTRICITY": 0.00010465,
    "INCLINATION": 97.8845,
    "RA_OF_ASC_NODE": 22.0302,
    "ARG_OF_PERICENTER": 92.563,
    "MEAN_ANOMALY": 267.5711,
    "EPHEMERIS_TYPE": 0,
    "CLASSIFICATION_TYPE": "U",
    "NORAD_CAT_ID": 31598,
    "ELEMENT_SET_NO": 999,
    "REV_AT_EPOCH": 3305,
    "BSTAR": 0.00013284964,
    "MEAN_MOTION_DOT": 0.00001476,
    "MEAN_MOTION_DDOT": 0
   }
  }
 ]
}
